SPACEBEENZ-22           
1 52403U 22047K   23263.00301418  .00094935  00000+0  22792-2 0  9995
2 52403  97.4119 348.3040 0004038   2.2707 357.8557 15.40993266 78305
SPACEBEENZ-19           
1 52404U 22047L   23262.78591431  .00098763  00000+0  21726-2 0  9995
2 52404  97.4126 348.6013 0003672 357.1795   2.9431 15.43606183 78300
SPACEBEENZ-21           
1 52405U 22047M   23263.19868495  .00092188  00000+0  21012-2 0  9992
2 52405  97.4109 348.8040 0003892   0.4919 359.6332 15.42572161 78358
SPACEBEE-148            
1 52406U 22047N   23263.13993974  .00066665  00000+0  18560-2 0  9993
2 52406  97.4083 347.5618 0007852  23.1487 337.0109 15.36539356 78263
SPACEBEE-149            
1 52407U 22047P   23263.00845274  .00058090  00000+0  17917-2 0  9997
2 52407  97.4143 346.6597 0005476  14.7743 345.3658 15.33365035 78199
SPACEBEE-153            
1 52408U 22047Q   23262.69877811  .00056774  00000+0  17118-2 0  9994
2 52408  97.4183 346.8333 0005725  28.3011 331.8541 15.34092013 78162
SPACEBEE-150            
1 52409U 22047R   23262.74821837  .00047491  00000+0  15038-2 0  9993
2 52409  97.4149 346.2683 0005716  19.3655 340.7803 15.32577751 78144
SPACEBEE-144            
1 52410U 22047S   23262.24068820  .00054467  00000+0  17366-2 0  9992
2 52410  97.4163 345.7656 0005348  20.5102 339.6353 15.32323430 78069
SPACEBEE-145            
1 52411U 22047T   23262.24266711  .00057137  00000+0  18159-2 0  9990
2 52411  97.4153 345.7476 0005257  20.7637 339.3818 15.32413475 78065
SPACEBEE-146            
1 52412U 22047U   23262.24004165  .00056794  00000+0  17897-2 0  9990
2 52412  97.4150 345.7308 0005182  20.9599 339.1855 15.32688127 78060
SPACEBEE-151            
1 52413U 22047V   23263.23944692  .00046521  00000+0  14810-2 0  9998
2 52413  97.4148 346.6689 0005742  18.2701 341.8746 15.32411296 78214
SPACEBEE-152            
1 52414U 22047W   23263.21903976  .00046416  00000+0  14900-2 0  9990
2 52414  97.4142 346.5243 0005725  18.9121 341.2332 15.32145066 78201
SPACEBEE-147            
1 52415U 22047X   23263.22416027  .00047471  00000+0  15330-2 0  9998
2 52415  97.4160 346.5923 0005444  18.9083 341.2359 15.31948802 78209
SPACEBEE-155            
1 52416U 22047Y   23262.20090042  .00055154  00000+0  18183-2 0  9997
2 52416  97.4131 345.0748 0006348  27.1057 333.0514 15.31238441 78027
SPACEBEE-154            
1 52417U 22047Z   23262.79259719  .00050261  00000+0  16264-2 0  9992
2 52417  97.4147 346.0412 0005805  21.9397 338.2092 15.31866976 78130
SPACEBEE-167            
1 55087U 23001CG  23262.70472186  .00026924  00000+0  11509-2 0  9991
2 55087  97.4665 321.9774 0013883  39.8008 320.4244 15.22734111 39466
SPACEBEE-163            
1 55089U 23001CJ  23262.75844745  .00036951  00000+0  15266-2 0  9997
2 55089  97.4653 322.1921 0013343  38.7236 321.4955 15.23824536 39488
SPACEBEE-164            
1 55091U 23001CL  23263.11812712  .00030033  00000+0  12637-2 0  9994
2 55091  97.4660 322.4867 0014020  37.4333 322.7877 15.23243355 39535
SPACEBEE-166            
1 55092U 23001CM  23263.40630870  .00032892  00000+0  13285-2 0  9995
2 55092  97.4646 323.0048 0015065  35.6856 324.5385 15.24590039 39593
SPACEBEE-165            
1 55094U 23001CP  23263.41052467  .00028832  00000+0  12002-2 0  9993
2 55094  97.4657 322.8522 0013148  36.4346 323.7783 15.23626927 39581
SPACEBEE-162            
1 55095U 23001CQ  23263.16418693  .00029425  00000+0  12314-2 0  9998
2 55095  97.4657 322.5777 0014210  36.4173 323.8027 15.23429606 39543
SPACEBEE-161            
1 55096U 23001CR  23262.69568681  .00029090  00000+0  12151-2 0  9996
2 55096  97.4662 322.1307 0014152  38.2543 321.9695 15.23496647 39472
SPACEBEE-160            
1 55097U 23001CS  23263.41110811  .00029061  00000+0  12103-2 0  9991
2 55097  97.4657 322.8552 0014137  35.8815 324.3368 15.23596819 39582
SPACEBEE-156            
1 55099U 23001CU  23263.40171158  .00029140  00000+0  12092-2 0  9998
2 55099  97.4657 322.8691 0014160  34.8521 325.3640 15.23718027 39588
SPACEBEE-158            
1 55100U 23001CV  23263.09203473  .00033432  00000+0  13993-2 0  9992
2 55100  97.4673 322.5340 0014681  37.2310 322.9941 15.23390199 39536
SPACEBEE-159            
1 55101U 23001CW  23263.40852415  .00031222  00000+0  12708-2 0  9992
2 55101  97.4659 323.0136 0015109  35.6675 324.5568 15.24342267 39595
SPACEBEE-157            
1 55102U 23001CX  23263.11400051  .00035236  00000+0  14237-2 0  9994
2 55102  97.4638 322.7533 0013624  38.2009 322.0191 15.24582055 39552
SPACEBEE-179            
1 56969U 23084AP  23262.28027924  .00026351  00000+0  13411-2 0  9999
2 56969  97.5216  17.7871 0014072 230.3644 129.6348 15.16708126 14908
SPACEBEE-177            
1 56972U 23084AS  23262.86570668  .00028456  00000+0  14352-2 0  9998
2 56972  97.5220  18.3919 0014426 228.6688 131.3304 15.17004030 14993
SPACEBEE-178            
1 56973U 23084AT  23262.54219361  .00030110  00000+0  15321-2 0  9991
2 56973  97.5227  18.0634 0014558 231.0545 128.9391 15.16679654 14940
SPACEBEE-176            
1 56975U 23084AV  23262.86548333  .00028435  00000+0  14378-2 0  9990
2 56975  97.5216  18.3905 0014481 227.5866 132.4143 15.16914548 14999
SPACEBEE-174            
1 56976U 23084AW  23263.25693381  .00026340  00000+0  13285-2 0  9998
2 56976  97.5218  18.7911 0014514 225.9042 134.0998 15.17019223 15059
SPACEBEE-173            
1 56978U 23084AY  23262.33090456  .00026528  00000+0  13381-2 0  9997
2 56978  97.5222  17.8798 0014750 229.1268 130.8688 15.17012350 14915
SPACEBEE-172            
1 56979U 23084AZ  23263.32518092  .00025702  00000+0  12988-2 0  9994
2 56979  97.5218  18.8525 0014839 226.2842 133.7163 15.16953450 15065
SPACEBEE-171            
1 56980U 23084BA  23262.32909556  .00026958  00000+0  13583-2 0  9990
2 56980  97.5224  17.8833 0014763 229.2273 130.7680 15.17046155 14912
SPACEBEE-169            
1 56982U 23084BC  23262.87502477  .00027429  00000+0  13965-2 0  9991
2 56982  97.5211  18.3717 0015077 227.6465 132.3492 15.16673552 14994
SPACEBEE-170            
1 56983U 23084BD  23262.32973654  .00023025  00000+0  11625-2 0  9990
2 56983  97.5225  17.8833 0014367 226.6892 133.3144 15.17014443 14913
SPACEBEE-168            
1 56984U 23084BE  23263.31657590  .00025067  00000+0  12620-2 0  9993
2 56984  97.5237  18.8879 0015067 226.2090 133.7898 15.17086749 15067
SPACEBEE-175            
1 56985U 23084BF  23262.77714241  .00020307  00000+0  10191-2 0  9993
2 56985  97.5224  18.3627 0015798 230.1736 129.8108 15.17232789 14989
